YAOGAN-30 06A           
1 44449U 19045A   26068.82740719  .00004384  00000+0  32897-3 0  9994
2 44449  34.9928 215.4318 0003189 139.0512 221.0436 15.02102304361666
STARLINK-6227           
1 57060U 23088N   26068.14508303 -.00000410  00000+0 -15275-4 0  9995
2 57060  43.0035 110.7838 0001256 277.6111  82.4589 15.02534471150286
